[{"OBJECT_NAME":"SBIRS GEO-2 (USA 241)","OBJECT_ID":"2013-011A","EPOCH":"2023-09-24T00:57:52.758144","MEAN_MOTION":1.00271651,"ECCENTRICITY":0.0001944,"INCLINATION":2.512,"RA_OF_ASC_NODE":41.0472,"ARG_OF_PERICENTER":152.2234,"MEAN_ANOMALY":145.8261,"EPHEMERIS_TYPE":0,"CLASSIFICATION_TYPE":"U","NORAD_CAT_ID":39120,"ELEMENT_SET_NO":999,"REV_AT_EPOCH":3858,"BSTAR":0,"MEAN_MOTION_DOT":-2.61e-6,"MEAN_MOTION_DDOT":0},{"OBJECT_NAME":"EUTELSAT 117 WEST A","OBJECT_ID":"2013-012A","EPOCH":"2023-09-23T12:17:32.298432","MEAN_MOTION":1.00269982,"ECCENTRICITY":0.0002928,"INCLINATION":0.015,"RA_OF_ASC_NODE":146.6506,"ARG_OF_PERICENTER":31.0975,"MEAN_ANOMALY":251.9332,"EPHEMERIS_TYPE":0,"CLASSIFICATION_TYPE":"U","NORAD_CAT_ID":39122,"ELEMENT_SET_NO":999,"REV_AT_EPOCH":3842,"BSTAR":0,"MEAN_MOTION_DOT":-1.5e-7,"MEAN_MOTION_DDOT":0},{"OBJECT_NAME":"ANIK G1","OBJECT_ID":"2013-014A","EPOCH":"2023-09-24T05:00:46.405152","MEAN_MOTION":1.00271156,"ECCENTRICITY":0.0001959,"INCLINATION":0.0032,"RA_OF_ASC_NODE":82.4088,"ARG_OF_PERICENTER":123.674,"MEAN_ANOMALY":124.6207,"EPHEMERIS_TYPE":0,"CLASSIFICATION_TYPE":"U","NORAD_CAT_ID":39127,"ELEMENT_SET_NO":999,"REV_AT_EPOCH":3824,"BSTAR":0,"MEAN_MOTION_DOT":-8.0e-7,"MEAN_MOTION_DDOT":0},{"OBJECT_NAME":"CHINASAT 11 (ZX 11)","OBJECT_ID":"2013-020A","EPOCH":"2023-09-23T14:06:00.688608","MEAN_MOTION":1.00270692,"ECCENTRICITY":8.03e-5,"INCLINATION":0.017,"RA_OF_ASC_NODE":229.1654,"ARG_OF_PERICENTER":7.2331,"MEAN_ANOMALY":75.2113,"EPHEMERIS_TYPE":0,"CLASSIFICATION_TYPE":"U","NORAD_CAT_ID":39157,"ELEMENT_SET_NO":999,"REV_AT_EPOCH":3789,"BSTAR":0,"MEAN_MOTION_DOT":-2.94e-6,"MEAN_MOTION_DDOT":0},{"OBJECT_NAME":"EUTELSAT 7B","OBJECT_ID":"2013-022A","EPOCH":"2023-09-23T06:15:46.884384","MEAN_MOTION":1.00272565,"ECCENTRICITY":8.61e-5,"INCLINATION":0.0668,"RA_OF_ASC_NODE":2.5464,"ARG_OF_PERICENTER":9.88,"MEAN_ANOMALY":90.3781,"EPHEMERIS_TYPE":0,"CLASSIFICATION_TYPE":"U","NORAD_CAT_ID":39163,"ELEMENT_SET_NO":999,"REV_AT_EPOCH":3796,"BSTAR":0,"MEAN_MOTION_DOT":4.6e-7,"MEAN_MOTION_DDOT":0},{"OBJECT_NAME":"WGS F5 (USA 243)","OBJECT_ID":"2013-024A","EPOCH":"2023-09-24T02:37:00.088320","MEAN_MOTION":1.00270228,"ECCENTRICITY":3.11e-5,"INCLINATION":0.0206,"RA_OF_ASC_NODE":172.8905,"ARG_OF_PERICENTER":351.1339,"MEAN_ANOMALY":185.4058,"EPHEMERIS_TYPE":0,"CLASSIFICATION_TYPE":"U","NORAD_CAT_ID":39168,"ELEMENT_SET_NO":999,"REV_AT_EPOCH":3782,"BSTAR":0,"MEAN_MOTION_DOT":-2.9e-6,"MEAN_MOTION_DDOT":0},{"OBJECT_NAME":"SES-6","OBJECT_ID":"2013-026A","EPOCH":"2023-09-24T00:57:15.162912","MEAN_MOTION":1.00269585,"ECCENTRICITY":0.0002238,"INCLINATION":0.0406,"RA_OF_ASC_NODE":328.2557,"ARG_OF_PERICENTER":207.1353,"MEAN_ANOMALY":161.0489,"EPHEMERIS_TYPE":0,"CLASSIFICATION_TYPE":"U","NORAD_CAT_ID":39172,"ELEMENT_SET_NO":999,"REV_AT_EPOCH":3771,"BSTAR":0,"MEAN_MOTION_DOT":-2.67e-6,"MEAN_MOTION_DDOT":0},{"OBJECT_NAME":"IRNSS-1A","OBJECT_ID":"2013-034A","EPOCH":"2023-09-24T01:24:34.251264","MEAN_MOTION":1.00272114,"ECCENTRICITY":0.0020839,"INCLINATION":33.4701,"RA_OF_ASC_NODE":78.3966,"ARG_OF_PERICENTER":179.2986,"MEAN_ANOMALY":181.1197,"EPHEMERIS_TYPE":0,"CLASSIFICATION_TYPE":"U","NORAD_CAT_ID":39199,"ELEMENT_SET_NO":999,"REV_AT_EPOCH":3765,"BSTAR":0,"MEAN_MOTION_DOT":9.2e-7,"MEAN_MOTION_DDOT":0},{"OBJECT_NAME":"MUOS-2","OBJECT_ID":"2013-036A","EPOCH":"2023-09-24T03:44:32.695008","MEAN_MOTION":1.00271957,"ECCENTRICITY":0.0057959,"INCLINATION":3.2086,"RA_OF_ASC_NODE":35.8496,"ARG_OF_PERICENTER":177.8671,"MEAN_ANOMALY":28.1186,"EPHEMERIS_TYPE":0,"CLASSIFICATION_TYPE":"U","NORAD_CAT_ID":39206,"ELEMENT_SET_NO":999,"REV_AT_EPOCH":3730,"BSTAR":0,"MEAN_MOTION_DOT":6.1e-7,"MEAN_MOTION_DDOT":0},{"OBJECT_NAME":"ALPHASAT","OBJECT_ID":"2013-038A","EPOCH":"2023-09-24T02:59:03.389856","MEAN_MOTION":1.00273548,"ECCENTRICITY":0.000387,"INCLINATION":2.8492,"RA_OF_ASC_NODE":9.7864,"ARG_OF_PERICENTER":185.3715,"MEAN_ANOMALY":237.1714,"EPHEMERIS_TYPE":0,"CLASSIFICATION_TYPE":"U","NORAD_CAT_ID":39215,"ELEMENT_SET_NO":999,"REV_AT_EPOCH":3727,"BSTAR":0,"MEAN_MOTION_DOT":1.31e-6,"MEAN_MOTION_DDOT":0},{"OBJECT_NAME":"INSAT-3D","OBJECT_ID":"2013-038B","EPOCH":"2023-09-24T01:32:20.413824","MEAN_MOTION":1.00269694,"ECCENTRICITY":0.000179,"INCLINATION":0.02,"RA_OF_ASC_NODE":177.6215,"ARG_OF_PERICENTER":33.9445,"MEAN_ANOMALY":256.2638,"EPHEMERIS_TYPE":0,"CLASSIFICATION_TYPE":"U","NORAD_CAT_ID":39216,"ELEMENT_SET_NO":999,"REV_AT_EPOCH":3730,"BSTAR":0,"MEAN_MOTION_DOT":-1.61e-6,"MEAN_MOTION_DDOT":0},{"OBJECT_NAME":"WGS F6 (USA 244)","OBJECT_ID":"2013-041A","EPOCH":"2023-09-23T13:37:44.489856","MEAN_MOTION":1.00272029,"ECCENTRICITY":1.41e-5,"INCLINATION":0.0122,"RA_OF_ASC_NODE":193.4318,"ARG_OF_PERICENTER":305.3611,"MEAN_ANOMALY":292.6081,"EPHEMERIS_TYPE":0,"CLASSIFICATION_TYPE":"U","NORAD_CAT_ID":39222,"ELEMENT_SET_NO":999,"REV_AT_EPOCH":3604,"BSTAR":0,"MEAN_MOTION_DOT":8.6e-7,"MEAN_MOTION_DDOT":0},{"OBJECT_NAME":"ES'HAIL 1","OBJECT_ID":"2013-044A","EPOCH":"2023-09-24T01:49:42.712320","MEAN_MOTION":1.00273248,"ECCENTRICITY":0.000207,"INCLINATION":0.0504,"RA_OF_ASC_NODE":11.618,"ARG_OF_PERICENTER":163.8577,"MEAN_ANOMALY":240.1174,"EPHEMERIS_TYPE":0,"CLASSIFICATION_TYPE":"U","NORAD_CAT_ID":39233,"ELEMENT_SET_NO":999,"REV_AT_EPOCH":3690,"BSTAR":0,"MEAN_MOTION_DOT":1.38e-6,"MEAN_MOTION_DDOT":0},{"OBJECT_NAME":"GSAT-7","OBJECT_ID":"2013-044B","EPOCH":"2023-09-24T01:20:42.612864","MEAN_MOTION":1.00271243,"ECCENTRICITY":0.0007852,"INCLINATION":0.0442,"RA_OF_ASC_NODE":87.3186,"ARG_OF_PERICENTER":169.8454,"MEAN_ANOMALY":199.6657,"EPHEMERIS_TYPE":0,"CLASSIFICATION_TYPE":"U","NORAD_CAT_ID":39234,"ELEMENT_SET_NO":999,"REV_AT_EPOCH":3690,"BSTAR":0,"MEAN_MOTION_DOT":-8.2e-7,"MEAN_MOTION_DDOT":0},{"OBJECT_NAME":"AMOS-4","OBJECT_ID":"2013-045A","EPOCH":"2023-09-23T13:31:42.621600","MEAN_MOTION":1.00272102,"ECCENTRICITY":0.0001383,"INCLINATION":0.029,"RA_OF_ASC_NODE":127.8889,"ARG_OF_PERICENTER":93.8136,"MEAN_ANOMALY":48.3675,"EPHEMERIS_TYPE":0,"CLASSIFICATION_TYPE":"U","NORAD_CAT_ID":39237,"ELEMENT_SET_NO":999,"REV_AT_EPOCH":3695,"BSTAR":0,"MEAN_MOTION_DOT":4.0e-8,"MEAN_MOTION_DDOT":0},{"OBJECT_NAME":"AEHF-3 (USA 246)","OBJECT_ID":"2013-050A","EPOCH":"2023-09-23T13:24:08.205120","MEAN_MOTION":1.00270271,"ECCENTRICITY":0.0056452,"INCLINATION":2.8108,"RA_OF_ASC_NODE":73.7981,"ARG_OF_PERICENTER":183.855,"MEAN_ANOMALY":150.48,"EPHEMERIS_TYPE":0,"CLASSIFICATION_TYPE":"U","NORAD_CAT_ID":39256,"ELEMENT_SET_NO":999,"REV_AT_EPOCH":3667,"BSTAR":0,"MEAN_MOTION_DOT":1.31e-6,"MEAN_MOTION_DDOT":0},{"OBJECT_NAME":"ASTRA 2E","OBJECT_ID":"2013-056A","EPOCH":"2023-09-23T11:31:27.635808","MEAN_MOTION":1.0027068,"ECCENTRICITY":0.0002412,"INCLINATION":0.0693,"RA_OF_ASC_NODE":334.2165,"ARG_OF_PERICENTER":197.1592,"MEAN_ANOMALY":32.0602,"EPHEMERIS_TYPE":0,"CLASSIFICATION_TYPE":"U","NORAD_CAT_ID":39285,"ELEMENT_SET_NO":999,"REV_AT_EPOCH":3643,"BSTAR":0,"MEAN_MOTION_DOT":1.47e-6,"MEAN_MOTION_DDOT":0}]