SBIRS GEO-2 (USA 241)   
1 39120U 13011A   23267.04019396 -.00000261  00000+0  00000+0 0  9991
2 39120   2.5120  41.0472 0001944 152.2234 145.8261  1.00271651 38586
EUTELSAT 117 WEST A     
1 39122U 13012A   23266.51217938 -.00000015  00000+0  00000+0 0  9994
2 39122   0.0150 146.6506 0002928  31.0975 251.9332  1.00269982 38428
ANIK G1                 
1 39127U 13014A   23267.20887043 -.00000080  00000+0  00000+0 0  9990
2 39127   0.0032  82.4088 0001959 123.6740 124.6207  1.00271156 38248
CHINASAT 11 (ZX 11)     
1 39157U 13020A   23266.58750797 -.00000294  00000+0  00000+0 0  9992
2 39157   0.0170 229.1654 0000803   7.2331  75.2113  1.00270692 37894
EUTELSAT 7B             
1 39163U 13022A   23266.26095931  .00000046  00000+0  00000+0 0  9992
2 39163   0.0668   2.5464 0000861   9.8800  90.3781  1.00272565 37966
WGS F5 (USA 243)        
1 39168U 13024A   23267.10902880 -.00000290  00000+0  00000+0 0  9995
2 39168   0.0206 172.8905 0000311 351.1339 185.4058  1.00270228 37822
SES-6                   
1 39172U 13026A   23267.03975883 -.00000267  00000+0  00000+0 0  9991
2 39172   0.0406 328.2557 0002238 207.1353 161.0489  1.00269585 37715
IRNSS-1A                
1 39199U 13034A   23267.05872976  .00000092  00000+0  00000+0 0  9995
2 39199  33.4701  78.3966 0020839 179.2986 181.1197  1.00272114 37651
MUOS-2                  
1 39206U 13036A   23267.15593397  .00000061  00000+0  00000+0 0  9990
2 39206   3.2086  35.8496 0057959 177.8671  28.1186  1.00271957 37309
ALPHASAT                
1 39215U 13038A   23267.12434479  .00000131  00000+0  00000+0 0  9992
2 39215   2.8492   9.7864 0003870 185.3715 237.1714  1.00273548 37273
INSAT-3D                
1 39216U 13038B   23267.06412516 -.00000161  00000+0  00000+0 0  9998
2 39216   0.0200 177.6215 0001790  33.9445 256.2638  1.00269694 37301
WGS F6 (USA 244)        
1 39222U 13041A   23266.56787604  .00000086  00000+0  00000+0 0  9991
2 39222   0.0122 193.4318 0000141 305.3611 292.6081  1.00272029 36043
ES'HAIL 1               
1 39233U 13044A   23267.07618880  .00000138  00000+0  00000+0 0  9990
2 39233   0.0504  11.6180 0002070 163.8577 240.1174  1.00273248 36908
GSAT-7                  
1 39234U 13044B   23267.05604876 -.00000082  00000+0  00000+0 0  9998
2 39234   0.0442  87.3186 0007852 169.8454 199.6657  1.00271243 36906
AMOS-4                  
1 39237U 13045A   23266.56368775  .00000004  00000+0  00000+0 0  9995
2 39237   0.0290 127.8889 0001383  93.8136  48.3675  1.00272102 36956
AEHF-3 (USA 246)        
1 39256U 13050A   23266.55842830  .00000131  00000+0  00000+0 0  9991
2 39256   2.8108  73.7981 0056452 183.8550 150.4800  1.00270271 36673
ASTRA 2E                
1 39285U 13056A   23266.48018097  .00000147  00000+0  00000+0 0  9998
2 39285   0.0693 334.2165 0002412 197.1592  32.0602  1.00270680 36437
